{
  "norad_id": 60600,
  "name": "STARLINK-31923",
  "history": [
    {
      "epoch": "2026-04-16T08:09:45.904032Z",
      "apogee_km": 476.058563341493,
      "perigee_km": 474.35345160123416,
      "latitude_deg": 1.9019060320502833e-05,
      "longitude_deg": 165.36641563500828,
      "height_km": 475.68533904694567,
      "semi_major_axis_km": 6853.343007471363,
      "eccentricity": 0.0001244,
      "inclination_deg": 53.1611,
      "raan_deg": 132.2969,
      "arg_perigee_deg": 60.5538,
      "mean_anomaly_deg": 299.5587,
      "mean_motion_rev_day": 15.30203035
    },
    {
      "epoch": "2026-04-17T18:38:58.021152Z",
      "apogee_km": 476.14385890277845,
      "perigee_km": 474.45503509350874,
      "latitude_deg": -4.0149784073525735e-05,
      "longitude_deg": -0.025532708559941802,
      "height_km": 476.01439796044804,
      "semi_major_axis_km": 6853.436446998144,
      "eccentricity": 0.00012321,
      "inclination_deg": 53.1615,
      "raan_deg": 125.6218,
      "arg_perigee_deg": 77.4575,
      "mean_anomaly_deg": 282.6563,
      "mean_motion_rev_day": 15.30171741
    },
    {
      "epoch": "2026-04-18T18:09:45.379008Z",
      "apogee_km": 476.1873486131908,
      "perigee_km": 474.33007837483365,
      "latitude_deg": -3.3141421256755586e-05,
      "longitude_deg": 1.7604974014967332,
      "height_km": 475.9116176417139,
      "semi_major_axis_km": 6853.395713494012,
      "eccentricity": 0.0001355,
      "inclination_deg": 53.1597,
      "raan_deg": 121.0708,
      "arg_perigee_deg": 74.6968,
      "mean_anomaly_deg": 285.4182,
      "mean_motion_rev_day": 15.30185383
    },
    {
      "epoch": "2026-04-19T17:40:32.628000Z",
      "apogee_km": 476.21551765050754,
      "perigee_km": 474.29519711196826,
      "latitude_deg": -2.8244476131343414e-05,
      "longitude_deg": 3.5479796028483204,
      "height_km": 475.91915697986803,
      "semi_major_axis_km": 6853.392357381237,
      "eccentricity": 0.0001401,
      "inclination_deg": 53.1603,
      "raan_deg": 116.5208,
      "arg_perigee_deg": 75.8828,
      "mean_anomaly_deg": 284.2328,
      "mean_motion_rev_day": 15.30186507
    },
    {
      "epoch": "2026-04-20T07:47:01.197888Z",
      "apogee_km": 476.068746536469,
      "perigee_km": 474.36390636298165,
      "latitude_deg": -2.290030352783368e-05,
      "longitude_deg": 148.61924898930877,
      "height_km": 475.8025783410164,
      "semi_major_axis_km": 6853.3533264497255,
      "eccentricity": 0.00012438,
      "inclination_deg": 53.161,
      "raan_deg": 113.7905,
      "arg_perigee_deg": 68.5231,
      "mean_anomaly_deg": 291.5902,
      "mean_motion_rev_day": 15.30199579
    },
    {
      "epoch": "2026-04-21T16:42:08.058240Z",
      "apogee_km": 476.06189436420027,
      "perigee_km": 474.37459830255375,
      "latitude_deg": 4.758130338409936e-05,
      "longitude_deg": 7.115895656125777,
      "height_km": 475.84842599436195,
      "semi_major_axis_km": 6853.355246333377,
      "eccentricity": 0.0001231,
      "inclination_deg": 53.1608,
      "raan_deg": 107.4176,
      "arg_perigee_deg": 71.4695,
      "mean_anomaly_deg": 288.644,
      "mean_motion_rev_day": 15.30198936
    },
    {
      "epoch": "2026-04-22T16:12:57.570912Z",
      "apogee_km": 476.3833896620763,
      "perigee_km": 474.1834417086411,
      "latitude_deg": -2.3530869681549632e-05,
      "longitude_deg": 8.892461894616389,
      "height_km": 475.771521610281,
      "semi_major_axis_km": 6853.420415685358,
      "eccentricity": 0.0001605,
      "inclination_deg": 53.1604,
      "raan_deg": 102.8662,
      "arg_perigee_deg": 68.1318,
      "mean_anomaly_deg": 291.9853,
      "mean_motion_rev_day": 15.3017711
    },
    {
      "epoch": "2026-04-22T22:29:10.508352Z",
      "apogee_km": 476.12928155194186,
      "perigee_km": 474.4364868405455,
      "latitude_deg": 3.654443108063504e-05,
      "longitude_deg": -86.6314104261699,
      "height_km": 476.0521422755014,
      "semi_major_axis_km": 6853.419884196243,
      "eccentricity": 0.0001235,
      "inclination_deg": 53.1599,
      "raan_deg": 101.6537,
      "arg_perigee_deg": 81.2428,
      "mean_anomaly_deg": 278.8713,
      "mean_motion_rev_day": 15.30177288
    }
  ]
}